#aV2006 11  4  0  0   .00000000      96 DD+AD WGS84 FIT  NGA
## 1399 518400.00000000   900.00000000 54043  .0000000000000
+   30     1  2  3  4  5  6  7  8  9 10 11 13 14 15 16 17 18
+         19 20 21 22 23 24 25 26 27 28 29 30 31  0  0  0  0
+          0  0  0  0  0  0  0  0  0  0  0  0  0  0  0  0  0
+          0  0  0  0  0  0  0  0  0  0  0  0  0  0  0  0  0
+          0  0  0  0  0  0  0  0  0  0  0  0  0  0  0  0  0
++         0  0  0  0  0  0  0  0  0  0  0  0  0  0  0  0  0
++         0  0  0  0  0  0  0  0  0  0  0  0  0  0  0  0  0
++         0  0  0  0  0  0  0  0  0  0  0  0  0  0  0  0  0
++         0  0  0  0  0  0  0  0  0  0  0  0  0  0  0  0  0
++         0  0  0  0  0  0  0  0  0  0  0  0  0  0  0  0  0
%c cc cc ccc ccc cccc cccc cccc cccc ccccc ccccc ccccc ccccc
%c cc cc ccc ccc cccc cccc cccc cccc ccccc ccccc ccccc ccccc
%f  0.0000000  0.000000000  0.00000000000  0.000000000000000
%f  0.0000000  0.000000000  0.00000000000  0.000000000000000
%i    0    0    0    0      0      0      0      0         0
%i    0    0    0    0      0      0      0      0         0
/*      NGA, ST. LOUIS,MO.                                  
/*   EPHEMERIS COMPUTED FROM  3 DAYS OF DATA                
/* CCCCCCCCCCCCCCCCCCCCCCCCCCCCCCCCCCCCCCCCCCCCCCCCCCCCCCCCC
/* CCCCCCCCCCCCCCCCCCCCCCCCCCCCCCCCCCCCCCCCCCCCCCCCCCCCCCCCC
*  2006 11  4  9  0   .00000000                                                 
P  1 -19074.576745 -14977.859169  11112.388839     86.777833                    
V  1  13404.084189   3384.819777  28020.896094       .025454                    
P  2  13218.848847  19822.747941 -12221.804101     51.342420                    
V  2    810.144436  15255.568152  25894.137723       .036778                    
P  3 -22720.030702 -11508.799578  -8290.057147    366.775969                    
V  3  10708.492663   -962.586318 -28348.264144       .347358                    
P  4   5206.361228  25843.010548   -251.301821    332.389863                    
V  4  -3418.281567    937.573271  31704.745242       .045295                    
P  5  21358.778583 -10173.543966  11689.544295    363.503342                    
V  5  -8210.728949  13282.209558  26211.194065      -.020544                    
P  6  15839.311263  -9849.957577 -18741.148682    561.977497                    
V  6  22825.210544   8418.127547  14662.332254      -.117819                    
P  7  -6037.079285 -16472.220450 -19542.940076    502.184771                    
V  7  25282.962728   5054.821891 -11937.453516      -.071129                    
P  8  -1998.135857  24761.195951  -8893.524183    -85.188360                    
V  8  -4274.562102 -10659.615219 -29582.832664      -.012206                    
P  9  15508.987307   1957.254910  20935.429438     43.172509                    
V  9   6256.964007  27180.738997  -6750.926644       .016365                    
P 10  14323.875386   6979.188970 -21397.062789     92.262786                    
V 10 -20124.636223  17784.879160  -7400.219643       .006006                    
P 11 -16635.113737   2421.660956  20507.123634    358.326754                    
V 11  -8937.307515 -24950.388436  -4009.150024       .017915                    
P 13 -14067.607419   9216.159394 -20636.914378    109.542416                    
V 13 -24161.443542  -9425.687195  12352.401879       .035873                    
P 14  -4279.022555 -16021.360924  20843.739752     -1.891482                    
V 14  24971.004933   7939.686485  11200.227353       .009425                    
P 15   1792.868971 -25284.931818  -7269.493765     52.709299                    
V 15   4352.131350   8671.283499 -30057.526304       .486896                    
P 16 -11277.455167 -10214.204315 -21695.142112     88.479471                    
V 16  20762.181049 -18377.577714  -2015.581997       .036639                    
P 17   3988.106099  16429.102030  20505.730442     90.770486                    
V 17 -24991.007249  -7314.507166  10610.618502      -.013699                    
P 18  16617.320732 -19521.200839   6393.037744   -252.056893                    
V 18   8171.465022  -2707.225532 -30430.699632      -.005443                    
P 19 -25291.763542  -7676.056127   3139.136141     30.837623                    
V 19  -2552.643788  -4021.553542 -31313.788225       .037697                    
P 20 -22039.919086  12082.970309   8446.910003    -21.885078                    
V 20   6113.710101  -9409.669294  29141.293324       .000835                    
P 21   6710.973468 -21155.755587 -14082.044482     59.989911                    
V 21   6077.602714  17518.325345 -23820.629709       .015635                    
P 22   5866.083484 -19969.441009  16650.749457    146.903885                    
V 22  17434.013258 -11626.974974 -20307.976241       .025753                    
P 23 -23048.906232   2060.718328 -13294.025025    139.795323                    
V 23 -15250.371529  -6936.370666  25338.261635       .006684                    
P 24   8340.076413  24198.118411  -6356.385533     49.592665                    
V 24  -1686.022763   8769.943793  30478.162132       .030501                    
P 25 -10888.879461 -23565.642946  -4812.372529    399.431791                    
V 25    961.241156  -7256.506742  30961.709469       .074394                    
P 26  25529.274023   8186.692773   1476.175234   -321.482201                    
V 26   1734.893786   2081.808233 -31970.324096      -.159684                    
P 27  -6606.209528  19148.556377 -16401.308821     76.272186                    
V 27  -7984.414912 -20751.853310 -20551.754905       .019551                    
P 28  -8960.598655  20683.807218  14060.662501     15.048750                    
V 28 -14777.082664   9646.014196 -24467.895646      -.008855                    
P 29  24900.844327   9446.051089  -2072.971193    160.510566                    
V 29  -3260.415062    725.842010 -32000.997171       .487611                    
P 30  19046.122993 -18420.805371    -45.220119     15.360211                    
V 30   2166.349050   2677.532614  31468.339814       .012320                    
P 31  -8150.583901 -24924.270578  -3886.537671    -54.012590                    
V 31   1718.355174  -5665.753363  31241.034854       .111847                    
EOF
